GLOBALSTAR M045 [-]     
1 25676U 99019A   23303.88853714 -.00000093  00000+0  51559-5 0  9991
2 25676  51.9962 201.9365 0001575  84.7648 353.8454 12.27017978120550
GLOBALSTAR M019 [-]     
1 25677U 99019B   23303.45047459 -.00000100  00000+0 -11007-3 0  9998
2 25677  51.9883 291.6469 0000745 170.6709 351.9828 12.13849704112982
GLOBALSTAR M044 [-]     
1 25678U 99019C   23303.85843485 -.00000003  00000+0  11263-2 0  9990
2 25678  51.9945 167.3969 0006232 340.3983 101.5893 11.90226364100414
GLOBALSTAR M042 [-]     
1 25679U 99019D   23303.48903267 -.00000042  00000+0  47479-3 0  9997
2 25679  52.0011 292.5756 0003018 146.0768  20.3930 12.22049817112490
GLOBALSTAR M025 [-]     
1 25770U 99031A   23302.68856891 -.00000072  00000+0 -14684-3 0  9990
2 25770  51.9792 101.0888 0001012 173.8823 199.0176 11.22546820414720
GLOBALSTAR M049 [-]     
1 25771U 99031B   23302.71024835 -.00000009  00000+0  19622-2 0  9995
2 25771  51.9845 105.8253 0003845  95.1172 265.0063 11.12102702 51066
GLOBALSTAR M047 [-]     
1 25772U 99031C   23302.89326753 -.00000033  00000+0  10061-2 0  9994
2 25772  51.9802 159.3513 0015765 322.7962  37.1751 11.31916898403583
GLOBALSTAR M052 [-]     
1 25773U 99031D   23302.91408513 -.00000087  00000+0 -70597-3 0  9994
2 25773  51.9853 222.4234 0001759 280.3869 155.0589 11.15046339411994
